{
  "fetched_at": 1759663798.4084952,
  "data": {
    "signature": {
      "version": "1.3",
      "source": "NASA/JPL Small-Body Database (SBDB) API"
    },
    "vi_data": [],
    "orbit": {
      "n_del_obs_used": null,
      "sb_used": "SB441-N16",
      "t_jup": "3.079",
      "first_obs": "2000-11-19",
      "elements": [
        {
          "name": "e",
          "label": "e",
          "title": "eccentricity",
          "sigma": "0.0085",
          "units": null,
          "value": "0.662"
        },
        {
          "title": "semi-major axis",
          "sigma": "0.061",
          "label": "a",
          "name": "a",
          "value": "2.52",
          "units": "au"
        },
        {
          "units": "au",
          "value": "0.854",
          "label": "q",
          "name": "q",
          "title": "perihelion distance",
          "sigma": "0.00093"
        },
        {
          "units": "deg",
          "value": "13.3",
          "name": "i",
          "label": "i",
          "title": "inclination; angle with respect to x-y ecliptic plane",
          "sigma": "0.14"
        },
        {
          "units": "deg",
          "value": "50.4",
          "name": "om",
          "label": "node",
          "sigma": "0.02",
          "title": "longitude of the ascending node"
        },
        {
          "value": "63.3",
          "units": "deg",
          "title": "argument of perihelion",
          "sigma": "0.0023",
          "name": "w",
          "label": "peri"
        },
        {
          "units": "deg",
          "value": "350",
          "label": "M",
          "name": "ma",
          "title": "mean anomaly",
          "sigma": "0.39"
        },
        {
          "title": "time of perihelion passage",
          "sigma": "0.13",
          "label": "tp",
          "name": "tp",
          "value": "2451909.661",
          "units": "TDB"
        },
        {
          "units": "d",
          "value": "1460",
          "label": "period",
          "name": "per",
          "title": "sidereal orbital period",
          "sigma": "53"
        },
        {
          "units": "deg/d",
          "value": "0.246",
          "label": "n",
          "name": "n",
          "title": "mean motion",
          "sigma": "0.0089"
        },
        {
          "title": "aphelion distance",
          "sigma": "0.1",
          "label": "Q",
          "name": "ad",
          "value": "4.19",
          "units": "au"
        }
      ],
      "not_valid_before": null,
      "moid_jup": "1.35",
      "equinox": "J2000",
      "n_dop_obs_used": null,
      "cov_epoch": "2451869.5",
      "data_arc": "4",
      "last_obs": "2000-11-23",
      "soln_date": "2021-04-14 21:00:49",
      "source": "JPL",
      "producer": "Otto Matic",
      "orbit_id": "13",
      "epoch": "2451869.5",
      "moid": "0.049",
      "model_pars": [],
      "pe_used": "DE441",
      "rms": "0.55",
      "condition_code": "9",
      "not_valid_after": null,
      "n_obs_used": 23,
      "two_body": null,
      "comment": null
    },
    "phys_par": [
      {
        "units": null,
        "notes": "autocmod 2.9c",
        "title": "absolute magnitude",
        "ref": "MPO733997",
        "value": "22.42",
        "name": "H",
        "sigma": ".47426",
        "desc": "absolute magnitude (magnitude at 1 au from Sun and observer)"
      },
      {
        "title": "rotation period",
        "notes": "REFERENCE LIST:[Whiteley, R.J.; Hergenrother, C.W.; Tholen, D.J. (2002) Proc. ACM 2002, 473-480.], [Hergenrother, C.W.; Whiteley, R.J. (2011) Icarus 214, 194-209.]",
        "units": "h",
        "name": "rot_per",
        "desc": "body rotation period (synodic)",
        "sigma": null,
        "ref": "LCDB (Rev. 2023-October); Warner et al., 2009",
        "value": "0.02221"
      }
    ],
    "discovery": {},
    "object": {
      "pha": true,
      "des": "2000 WH10",
      "orbit_id": "13",
      "spkid": "3092276",
      "orbit_class": {
        "code": "APO",
        "name": "Apollo"
      },
      "kind": "au",
      "prefix": null,
      "neo": true,
      "fullname": "(2000 WH10)"
    }
  },
  "normalized": {
    "spkid": "3092276",
    "full_name": "(2000 WH10)",
    "pha": true,
    "absolute_magnitude_h": null,
    "diameter_km": null,
    "diameter_m": null,
    "density_kgm3": null,
    "velocity_kms": null,
    "impact_probability": null,
    "palermo_scale": null,
    "torino_scale": null,
    "reported_energy_megatons": null,
    "reported_mass_kg": null,
    "vi_data": [],
    "source": "NASA SBDB"
  }
}